PRC TEST SPACECRAFT 4   
1 67689U 26024A   26068.49330731  .00000218  00000+0  45497-4 0  9995
2 67689  49.9867  23.6934 0006072 359.5675   0.5260 14.91687996  4550
CZ-2F R/B               
1 67690U 26024B   26068.44245685  .00020008  00000+0  36547-3 0  9999
2 67690  49.9895  15.8391 0174456 273.8330  84.2699 15.34326289  4650
CZ-2F DEB               
1 67691U 26024C   26067.84521512  .02263804  11413-4  78379-3 0  9998
2 67691  49.9020   8.3885 0111843 286.7084  72.1655 16.10619037  4688
CZ-2F DEB               
1 67692U 26024D   26068.41298340  .00273498  00000+0  46392-2 0  9995
2 67692  50.3195  20.0460 0230291 278.8551  78.6401 15.25972556  4580
STARLINK-36748          
1 67693U 26025A   26068.28782303  .00158732  00000+0  10447-2 0  9994
2 67693  97.2839 179.7994 0002055   0.9196 359.2072 15.75206142  5875
STARLINK-36753          
1 67694U 26025B   26068.53417291  .00306425  00000+0  19743-2 0  9996
2 67694  97.2828 180.0737 0001870 356.1891   3.9360 15.75285562  5928
STARLINK-36750          
1 67695U 26025C   26068.50002314  .00162697  00000+0  10757-2 0  9997
2 67695  97.2840 180.1423 0001357 100.4610 302.1244 15.75088753  5822
STARLINK-36401          
1 67696U 26025D   26068.26629529  .00249764  00000+0  16217-2 0  9992
2 67696  97.2829 179.8285 0000516 355.8283   4.2978 15.75263542  5879
STARLINK-36704          
1 67697U 26025E   26068.27794101  .00139086  00000+0  91600-3 0  9998
2 67697  97.2834 179.8116 0002239  96.0415 264.1106 15.75245543  5875
STARLINK-36697          
1 67698U 26025F   26068.50002314 -.01601983  00000+0 -11603-1 0  9999
2 67698  97.2844 180.1616 0001205  64.1432  23.5846 15.76537903  5776
STARLINK-36716          
1 67699U 26025G   26068.31182582  .00179516  00000+0  11778-2 0  9998
2 67699  97.2837 179.9195 0001180  57.1533 302.9846 15.75219544  5897
STARLINK-36712          
1 67700U 26025H   26068.26805965  .00162619  00000+0  10694-2 0  9994
2 67700  97.2825 179.8245 0001353  16.6655 343.4654 15.75214501  5872
