CCSDS_OMM_VERS = 2.0
CREATION_DATE  = 
ORIGINATOR     = 

OBJECT_NAME    = PRC TEST SPACECRAFT 4
OBJECT_ID      = 2026-024A
CENTER_NAME    = EARTH
REF_FRAME      = TEME
TIME_SYSTEM    = UTC
MEAN_ELEMENT_THEORY = SGP/SGP4

EPOCH          = 2026-03-09T11:50:21.751584
MEAN_MOTION    = 14.91687996
ECCENTRICITY   = .0006072
INCLINATION    = 49.9867
RA_OF_ASC_NODE = 23.6934
ARG_OF_PERICENTER = 359.5675
MEAN_ANOMALY   = 0.5260

EPHEMERIS_TYPE = 0
CLASSIFICATION_TYPE = U
NORAD_CAT_ID   = 67689
ELEMENT_SET_NO = 999
REV_AT_EPOCH   = 455
BSTAR          = .45497E-4
MEAN_MOTION_DOT = .218E-5
MEAN_MOTION_DDOT = 0

CCSDS_OMM_VERS = 2.0
CREATION_DATE  = 
ORIGINATOR     = 

OBJECT_NAME    = CZ-2F R/B
OBJECT_ID      = 2026-024B
CENTER_NAME    = EARTH
REF_FRAME      = TEME
TIME_SYSTEM    = UTC
MEAN_ELEMENT_THEORY = SGP/SGP4

EPOCH          = 2026-03-09T10:37:08.271840
MEAN_MOTION    = 15.34326289
ECCENTRICITY   = .0174456
INCLINATION    = 49.9895
RA_OF_ASC_NODE = 15.8391
ARG_OF_PERICENTER = 273.8330
MEAN_ANOMALY   = 84.2699

EPHEMERIS_TYPE = 0
CLASSIFICATION_TYPE = U
NORAD_CAT_ID   = 67690
ELEMENT_SET_NO = 999
REV_AT_EPOCH   = 465
BSTAR          = .36547E-3
MEAN_MOTION_DOT = .20008E-3
MEAN_MOTION_DDOT = 0

CCSDS_OMM_VERS = 2.0
CREATION_DATE  = 
ORIGINATOR     = 

OBJECT_NAME    = CZ-2F DEB
OBJECT_ID      = 2026-024C
CENTER_NAME    = EARTH
REF_FRAME      = TEME
TIME_SYSTEM    = UTC
MEAN_ELEMENT_THEORY = SGP/SGP4

EPOCH          = 2026-03-08T20:17:06.586368
MEAN_MOTION    = 16.10619037
ECCENTRICITY   = .01118431
INCLINATION    = 49.9020
RA_OF_ASC_NODE = 8.3885
ARG_OF_PERICENTER = 286.7084
MEAN_ANOMALY   = 72.1655

EPHEMERIS_TYPE = 0
CLASSIFICATION_TYPE = U
NORAD_CAT_ID   = 67691
ELEMENT_SET_NO = 999
REV_AT_EPOCH   = 468
BSTAR          = .7837912E-3
MEAN_MOTION_DOT = .2263804E-1
MEAN_MOTION_DDOT = .11413185E-4

CCSDS_OMM_VERS = 2.0
CREATION_DATE  = 
ORIGINATOR     = 

OBJECT_NAME    = CZ-2F DEB
OBJECT_ID      = 2026-024D
CENTER_NAME    = EARTH
REF_FRAME      = TEME
TIME_SYSTEM    = UTC
MEAN_ELEMENT_THEORY = SGP/SGP4

EPOCH          = 2026-03-09T09:54:41.765760
MEAN_MOTION    = 15.25972556
ECCENTRICITY   = .0230291
INCLINATION    = 50.3195
RA_OF_ASC_NODE = 20.0460
ARG_OF_PERICENTER = 278.8551
MEAN_ANOMALY   = 78.6401

EPHEMERIS_TYPE = 0
CLASSIFICATION_TYPE = U
NORAD_CAT_ID   = 67692
ELEMENT_SET_NO = 999
REV_AT_EPOCH   = 458
BSTAR          = .46392E-2
MEAN_MOTION_DOT = .273498E-2
MEAN_MOTION_DDOT = 0

CCSDS_OMM_VERS = 2.0
CREATION_DATE  = 
ORIGINATOR     = 

OBJECT_NAME    = STARLINK-36748
OBJECT_ID      = 2026-025A
CENTER_NAME    = EARTH
REF_FRAME      = TEME
TIME_SYSTEM    = UTC
MEAN_ELEMENT_THEORY = SGP/SGP4

EPOCH          = 2026-03-09T06:54:27.909792
MEAN_MOTION    = 15.75206142
ECCENTRICITY   = .0002055
INCLINATION    = 97.2839
RA_OF_ASC_NODE = 179.7994
ARG_OF_PERICENTER = 0.9196
MEAN_ANOMALY   = 359.2072

EPHEMERIS_TYPE = 0
CLASSIFICATION_TYPE = U
NORAD_CAT_ID   = 67693
ELEMENT_SET_NO = 999
REV_AT_EPOCH   = 587
BSTAR          = .10447E-2
MEAN_MOTION_DOT = .158732E-2
MEAN_MOTION_DDOT = 0

CCSDS_OMM_VERS = 2.0
CREATION_DATE  = 
ORIGINATOR     = 

OBJECT_NAME    = STARLINK-36753
OBJECT_ID      = 2026-025B
CENTER_NAME    = EARTH
REF_FRAME      = TEME
TIME_SYSTEM    = UTC
MEAN_ELEMENT_THEORY = SGP/SGP4

EPOCH          = 2026-03-09T12:49:12.539424
MEAN_MOTION    = 15.75285562
ECCENTRICITY   = .000187
INCLINATION    = 97.2828
RA_OF_ASC_NODE = 180.0737
ARG_OF_PERICENTER = 356.1891
MEAN_ANOMALY   = 3.9360

EPHEMERIS_TYPE = 0
CLASSIFICATION_TYPE = U
NORAD_CAT_ID   = 67694
ELEMENT_SET_NO = 999
REV_AT_EPOCH   = 592
BSTAR          = .19743E-2
MEAN_MOTION_DOT = .306425E-2
MEAN_MOTION_DDOT = 0

CCSDS_OMM_VERS = 2.0
CREATION_DATE  = 
ORIGINATOR     = 

OBJECT_NAME    = STARLINK-36750
OBJECT_ID      = 2026-025C
CENTER_NAME    = EARTH
REF_FRAME      = TEME
TIME_SYSTEM    = UTC
MEAN_ELEMENT_THEORY = SGP/SGP4

EPOCH          = 2026-03-09T12:00:01.999296
MEAN_MOTION    = 15.75088753
ECCENTRICITY   = .0001357
INCLINATION    = 97.2840
RA_OF_ASC_NODE = 180.1423
ARG_OF_PERICENTER = 100.4610
MEAN_ANOMALY   = 302.1244

EPHEMERIS_TYPE = 0
CLASSIFICATION_TYPE = U
NORAD_CAT_ID   = 67695
ELEMENT_SET_NO = 999
REV_AT_EPOCH   = 582
BSTAR          = .10757E-2
MEAN_MOTION_DOT = .162697E-2
MEAN_MOTION_DDOT = 0

CCSDS_OMM_VERS = 2.0
CREATION_DATE  = 
ORIGINATOR     = 

OBJECT_NAME    = STARLINK-36401
OBJECT_ID      = 2026-025D
CENTER_NAME    = EARTH
REF_FRAME      = TEME
TIME_SYSTEM    = UTC
MEAN_ELEMENT_THEORY = SGP/SGP4

EPOCH          = 2026-03-09T06:23:27.913056
MEAN_MOTION    = 15.75263542
ECCENTRICITY   = .0000516
INCLINATION    = 97.2829
RA_OF_ASC_NODE = 179.8285
ARG_OF_PERICENTER = 355.8283
MEAN_ANOMALY   = 4.2978

EPHEMERIS_TYPE = 0
CLASSIFICATION_TYPE = U
NORAD_CAT_ID   = 67696
ELEMENT_SET_NO = 999
REV_AT_EPOCH   = 587
BSTAR          = .16217E-2
MEAN_MOTION_DOT = .249764E-2
MEAN_MOTION_DDOT = 0

CCSDS_OMM_VERS = 2.0
CREATION_DATE  = 
ORIGINATOR     = 

OBJECT_NAME    = STARLINK-36704
OBJECT_ID      = 2026-025E
CENTER_NAME    = EARTH
REF_FRAME      = TEME
TIME_SYSTEM    = UTC
MEAN_ELEMENT_THEORY = SGP/SGP4

EPOCH          = 2026-03-09T06:40:14.103264
MEAN_MOTION    = 15.75245543
ECCENTRICITY   = .0002239
INCLINATION    = 97.2834
RA_OF_ASC_NODE = 179.8116
ARG_OF_PERICENTER = 96.0415
MEAN_ANOMALY   = 264.1106

EPHEMERIS_TYPE = 0
CLASSIFICATION_TYPE = U
NORAD_CAT_ID   = 67697
ELEMENT_SET_NO = 999
REV_AT_EPOCH   = 587
BSTAR          = .916E-3
MEAN_MOTION_DOT = .139086E-2
MEAN_MOTION_DDOT = 0

CCSDS_OMM_VERS = 2.0
CREATION_DATE  = 
ORIGINATOR     = 

OBJECT_NAME    = STARLINK-36697
OBJECT_ID      = 2026-025F
CENTER_NAME    = EARTH
REF_FRAME      = TEME
TIME_SYSTEM    = UTC
MEAN_ELEMENT_THEORY = SGP/SGP4

EPOCH          = 2026-03-09T12:00:01.999296
MEAN_MOTION    = 15.76537903
ECCENTRICITY   = .0001205
INCLINATION    = 97.2844
RA_OF_ASC_NODE = 180.1616
ARG_OF_PERICENTER = 64.1432
MEAN_ANOMALY   = 23.5846

EPHEMERIS_TYPE = 0
CLASSIFICATION_TYPE = U
NORAD_CAT_ID   = 67698
ELEMENT_SET_NO = 999
REV_AT_EPOCH   = 577
BSTAR          = -.11603E-1
MEAN_MOTION_DOT = -.1601983E-1
MEAN_MOTION_DDOT = 0

CCSDS_OMM_VERS = 2.0
CREATION_DATE  = 
ORIGINATOR     = 

OBJECT_NAME    = STARLINK-36716
OBJECT_ID      = 2026-025G
CENTER_NAME    = EARTH
REF_FRAME      = TEME
TIME_SYSTEM    = UTC
MEAN_ELEMENT_THEORY = SGP/SGP4

EPOCH          = 2026-03-09T07:29:01.750848
MEAN_MOTION    = 15.75219544
ECCENTRICITY   = .000118
INCLINATION    = 97.2837
RA_OF_ASC_NODE = 179.9195
ARG_OF_PERICENTER = 57.1533
MEAN_ANOMALY   = 302.9846

EPHEMERIS_TYPE = 0
CLASSIFICATION_TYPE = U
NORAD_CAT_ID   = 67699
ELEMENT_SET_NO = 999
REV_AT_EPOCH   = 589
BSTAR          = .11778E-2
MEAN_MOTION_DOT = .179516E-2
MEAN_MOTION_DDOT = 0

CCSDS_OMM_VERS = 2.0
CREATION_DATE  = 
ORIGINATOR     = 

OBJECT_NAME    = STARLINK-36712
OBJECT_ID      = 2026-025H
CENTER_NAME    = EARTH
REF_FRAME      = TEME
TIME_SYSTEM    = UTC
MEAN_ELEMENT_THEORY = SGP/SGP4

EPOCH          = 2026-03-09T06:26:00.353760
MEAN_MOTION    = 15.75214501
ECCENTRICITY   = .0001353
INCLINATION    = 97.2825
RA_OF_ASC_NODE = 179.8245
ARG_OF_PERICENTER = 16.6655
MEAN_ANOMALY   = 343.4654

EPHEMERIS_TYPE = 0
CLASSIFICATION_TYPE = U
NORAD_CAT_ID   = 67700
ELEMENT_SET_NO = 999
REV_AT_EPOCH   = 587
BSTAR          = .10694E-2
MEAN_MOTION_DOT = .162619E-2
MEAN_MOTION_DDOT = 0

